<?xml version="1.0" encoding="UTF-8"?>
<ndm xmlns:xsi="http://www.w3.org/2001/XMLSchema-instance" xsi:noNamespaceSchemaLocation="https://sanaregistry.org/r/ndmxml_unqualified/ndmxml-2.0.0-master-2.0.xsd">
<omm id="CCSDS_OMM_VERS" version="2.0">
<header><CREATION_DATE/><ORIGINATOR/></header><body><segment><metadata><OBJECT_NAME>KUIPER-00079</OBJECT_NAME><OBJECT_ID>2025-151L</OBJECT_ID><CENTER_NAME>EARTH</CENTER_NAME><REF_FRAME>TEME</REF_FRAME><TIME_SYSTEM>UTC</TIME_SYSTEM><MEAN_ELEMENT_THEORY>SGP4</MEAN_ELEMENT_THEORY></metadata><data><meanElements><EPOCH>2025-10-15T04:53:57.849792</EPOCH><MEAN_MOTION>14.79954665</MEAN_MOTION><ECCENTRICITY>.0012949</ECCENTRICITY><INCLINATION>51.8987</INCLINATION><RA_OF_ASC_NODE>223.6104</RA_OF_ASC_NODE><ARG_OF_PERICENTER>116.3240</ARG_OF_PERICENTER><MEAN_ANOMALY>243.9054</MEAN_ANOMALY></meanElements><tleParameters><EPHEMERIS_TYPE>0</EPHEMERIS_TYPE><CLASSIFICATION_TYPE>U</CLASSIFICATION_TYPE><NORAD_CAT_ID>64826</NORAD_CAT_ID><ELEMENT_SET_NO>999</ELEMENT_SET_NO><REV_AT_EPOCH>1496</REV_AT_EPOCH><BSTAR>.89152168E-3</BSTAR><MEAN_MOTION_DOT>.6591E-4</MEAN_MOTION_DOT><MEAN_MOTION_DDOT>0</MEAN_MOTION_DDOT></tleParameters></data></segment></body></omm>
<omm id="CCSDS_OMM_VERS" version="2.0">
<header><CREATION_DATE/><ORIGINATOR/></header><body><segment><metadata><OBJECT_NAME>KUIPER-00080</OBJECT_NAME><OBJECT_ID>2025-151M</OBJECT_ID><CENTER_NAME>EARTH</CENTER_NAME><REF_FRAME>TEME</REF_FRAME><TIME_SYSTEM>UTC</TIME_SYSTEM><MEAN_ELEMENT_THEORY>SGP4</MEAN_ELEMENT_THEORY></metadata><data><meanElements><EPOCH>2025-10-15T12:53:18.792384</EPOCH><MEAN_MOTION>14.79934059</MEAN_MOTION><ECCENTRICITY>.00059002</ECCENTRICITY><INCLINATION>51.8986</INCLINATION><RA_OF_ASC_NODE>222.4372</RA_OF_ASC_NODE><ARG_OF_PERICENTER>131.3150</ARG_OF_PERICENTER><MEAN_ANOMALY>228.8321</MEAN_ANOMALY></meanElements><tleParameters><EPHEMERIS_TYPE>0</EPHEMERIS_TYPE><CLASSIFICATION_TYPE>U</CLASSIFICATION_TYPE><NORAD_CAT_ID>64827</NORAD_CAT_ID><ELEMENT_SET_NO>999</ELEMENT_SET_NO><REV_AT_EPOCH>1381</REV_AT_EPOCH><BSTAR>.2956062E-3</BSTAR><MEAN_MOTION_DOT>.2032E-4</MEAN_MOTION_DOT><MEAN_MOTION_DDOT>0</MEAN_MOTION_DDOT></tleParameters></data></segment></body></omm>
<omm id="CCSDS_OMM_VERS" version="2.0">
<header><CREATION_DATE/><ORIGINATOR/></header><body><segment><metadata><OBJECT_NAME>KUIPER-00082</OBJECT_NAME><OBJECT_ID>2025-151N</OBJECT_ID><CENTER_NAME>EARTH</CENTER_NAME><REF_FRAME>TEME</REF_FRAME><TIME_SYSTEM>UTC</TIME_SYSTEM><MEAN_ELEMENT_THEORY>SGP4</MEAN_ELEMENT_THEORY></metadata><data><meanElements><EPOCH>2025-10-15T16:00:03.000096</EPOCH><MEAN_MOTION>15.01404726</MEAN_MOTION><ECCENTRICITY>.00053081</ECCENTRICITY><INCLINATION>51.8915</INCLINATION><RA_OF_ASC_NODE>210.4843</RA_OF_ASC_NODE><ARG_OF_PERICENTER>141.3073</ARG_OF_PERICENTER><MEAN_ANOMALY>71.0822</MEAN_ANOMALY></meanElements><tleParameters><EPHEMERIS_TYPE>0</EPHEMERIS_TYPE><CLASSIFICATION_TYPE>U</CLASSIFICATION_TYPE><NORAD_CAT_ID>64828</NORAD_CAT_ID><ELEMENT_SET_NO>999</ELEMENT_SET_NO><REV_AT_EPOCH>582</REV_AT_EPOCH><BSTAR>-.81308809E-1</BSTAR><MEAN_MOTION_DOT>-.98739E-2</MEAN_MOTION_DOT><MEAN_MOTION_DDOT>0</MEAN_MOTION_DDOT></tleParameters></data></segment></body></omm>
<omm id="CCSDS_OMM_VERS" version="2.0">
<header><CREATION_DATE/><ORIGINATOR/></header><body><segment><metadata><OBJECT_NAME>KUIPER-00083</OBJECT_NAME><OBJECT_ID>2025-151P</OBJECT_ID><CENTER_NAME>EARTH</CENTER_NAME><REF_FRAME>TEME</REF_FRAME><TIME_SYSTEM>UTC</TIME_SYSTEM><MEAN_ELEMENT_THEORY>SGP4</MEAN_ELEMENT_THEORY></metadata><data><meanElements><EPOCH>2025-10-15T05:43:45.804576</EPOCH><MEAN_MOTION>14.80058870</MEAN_MOTION><ECCENTRICITY>.00107707</ECCENTRICITY><INCLINATION>51.8987</INCLINATION><RA_OF_ASC_NODE>218.7660</RA_OF_ASC_NODE><ARG_OF_PERICENTER>121.4346</ARG_OF_PERICENTER><MEAN_ANOMALY>238.7671</MEAN_ANOMALY></meanElements><tleParameters><EPHEMERIS_TYPE>0</EPHEMERIS_TYPE><CLASSIFICATION_TYPE>U</CLASSIFICATION_TYPE><NORAD_CAT_ID>64829</NORAD_CAT_ID><ELEMENT_SET_NO>999</ELEMENT_SET_NO><REV_AT_EPOCH>1502</REV_AT_EPOCH><BSTAR>.19069065E-2</BSTAR><MEAN_MOTION_DOT>.14401E-3</MEAN_MOTION_DOT><MEAN_MOTION_DDOT>0</MEAN_MOTION_DDOT></tleParameters></data></segment></body></omm>
<omm id="CCSDS_OMM_VERS" version="2.0">
<header><CREATION_DATE/><ORIGINATOR/></header><body><segment><metadata><OBJECT_NAME>KUIPER-00084</OBJECT_NAME><OBJECT_ID>2025-151Q</OBJECT_ID><CENTER_NAME>EARTH</CENTER_NAME><REF_FRAME>TEME</REF_FRAME><TIME_SYSTEM>UTC</TIME_SYSTEM><MEAN_ELEMENT_THEORY>SGP4</MEAN_ELEMENT_THEORY></metadata><data><meanElements><EPOCH>2025-10-15T13:34:04.897344</EPOCH><MEAN_MOTION>14.79943551</MEAN_MOTION><ECCENTRICITY>.00119138</ECCENTRICITY><INCLINATION>51.8983</INCLINATION><RA_OF_ASC_NODE>227.3047</RA_OF_ASC_NODE><ARG_OF_PERICENTER>97.5686</ARG_OF_PERICENTER><MEAN_ANOMALY>262.6630</MEAN_ANOMALY></meanElements><tleParameters><EPHEMERIS_TYPE>0</EPHEMERIS_TYPE><CLASSIFICATION_TYPE>U</CLASSIFICATION_TYPE><NORAD_CAT_ID>64830</NORAD_CAT_ID><ELEMENT_SET_NO>999</ELEMENT_SET_NO><REV_AT_EPOCH>1374</REV_AT_EPOCH><BSTAR>-.6505972E-3</BSTAR><MEAN_MOTION_DOT>-.5188E-4</MEAN_MOTION_DOT><MEAN_MOTION_DDOT>0</MEAN_MOTION_DDOT></tleParameters></data></segment></body></omm>
<omm id="CCSDS_OMM_VERS" version="2.0">
<header><CREATION_DATE/><ORIGINATOR/></header><body><segment><metadata><OBJECT_NAME>KUIPER-00085</OBJECT_NAME><OBJECT_ID>2025-151R</OBJECT_ID><CENTER_NAME>EARTH</CENTER_NAME><REF_FRAME>TEME</REF_FRAME><TIME_SYSTEM>UTC</TIME_SYSTEM><MEAN_ELEMENT_THEORY>SGP4</MEAN_ELEMENT_THEORY></metadata><data><meanElements><EPOCH>2025-10-15T16:00:03.000096</EPOCH><MEAN_MOTION>15.01201381</MEAN_MOTION><ECCENTRICITY>.000975</ECCENTRICITY><INCLINATION>51.8937</INCLINATION><RA_OF_ASC_NODE>210.6406</RA_OF_ASC_NODE><ARG_OF_PERICENTER>120.0098</ARG_OF_PERICENTER><MEAN_ANOMALY>263.2195</MEAN_ANOMALY></meanElements><tleParameters><EPHEMERIS_TYPE>0</EPHEMERIS_TYPE><CLASSIFICATION_TYPE>U</CLASSIFICATION_TYPE><NORAD_CAT_ID>64831</NORAD_CAT_ID><ELEMENT_SET_NO>999</ELEMENT_SET_NO><REV_AT_EPOCH>343</REV_AT_EPOCH><BSTAR>.34334708E-2</BSTAR><MEAN_MOTION_DOT>.44607E-3</MEAN_MOTION_DOT><MEAN_MOTION_DDOT>0</MEAN_MOTION_DDOT></tleParameters></data></segment></body></omm>
<omm id="CCSDS_OMM_VERS" version="2.0">
<header><CREATION_DATE/><ORIGINATOR/></header><body><segment><metadata><OBJECT_NAME>KUIPER-00086</OBJECT_NAME><OBJECT_ID>2025-151S</OBJECT_ID><CENTER_NAME>EARTH</CENTER_NAME><REF_FRAME>TEME</REF_FRAME><TIME_SYSTEM>UTC</TIME_SYSTEM><MEAN_ELEMENT_THEORY>SGP4</MEAN_ELEMENT_THEORY></metadata><data><meanElements><EPOCH>2025-10-15T14:34:33.579840</EPOCH><MEAN_MOTION>14.79938946</MEAN_MOTION><ECCENTRICITY>.00119336</ECCENTRICITY><INCLINATION>51.9015</INCLINATION><RA_OF_ASC_NODE>219.6310</RA_OF_ASC_NODE><ARG_OF_PERICENTER>119.4896</ARG_OF_PERICENTER><MEAN_ANOMALY>240.7259</MEAN_ANOMALY></meanElements><tleParameters><EPHEMERIS_TYPE>0</EPHEMERIS_TYPE><CLASSIFICATION_TYPE>U</CLASSIFICATION_TYPE><NORAD_CAT_ID>64832</NORAD_CAT_ID><ELEMENT_SET_NO>999</ELEMENT_SET_NO><REV_AT_EPOCH>1385</REV_AT_EPOCH><BSTAR>-.31185054E-3</BSTAR><MEAN_MOTION_DOT>-.2604E-4</MEAN_MOTION_DOT><MEAN_MOTION_DDOT>0</MEAN_MOTION_DDOT></tleParameters></data></segment></body></omm>
<omm id="CCSDS_OMM_VERS" version="2.0">
<header><CREATION_DATE/><ORIGINATOR/></header><body><segment><metadata><OBJECT_NAME>KUIPER-00087</OBJECT_NAME><OBJECT_ID>2025-151T</OBJECT_ID><CENTER_NAME>EARTH</CENTER_NAME><REF_FRAME>TEME</REF_FRAME><TIME_SYSTEM>UTC</TIME_SYSTEM><MEAN_ELEMENT_THEORY>SGP4</MEAN_ELEMENT_THEORY></metadata><data><meanElements><EPOCH>2025-10-15T16:00:03.000096</EPOCH><MEAN_MOTION>15.22640494</MEAN_MOTION><ECCENTRICITY>.00061358</ECCENTRICITY><INCLINATION>51.8804</INCLINATION><RA_OF_ASC_NODE>207.2247</RA_OF_ASC_NODE><ARG_OF_PERICENTER>135.1493</ARG_OF_PERICENTER><MEAN_ANOMALY>225.9484</MEAN_ANOMALY></meanElements><tleParameters><EPHEMERIS_TYPE>0</EPHEMERIS_TYPE><CLASSIFICATION_TYPE>U</CLASSIFICATION_TYPE><NORAD_CAT_ID>64833</NORAD_CAT_ID><ELEMENT_SET_NO>999</ELEMENT_SET_NO><REV_AT_EPOCH>584</REV_AT_EPOCH><BSTAR>-.48111364E-1</BSTAR><MEAN_MOTION_DOT>-.1042336E-1</MEAN_MOTION_DOT><MEAN_MOTION_DDOT>0</MEAN_MOTION_DDOT></tleParameters></data></segment></body></omm>

</ndm>
