KUIPER-00079            
1 64826U 25151L   25288.20414178  .00006591  00000+0  89152-3 0  9990
2 64826  51.8987 223.6104 0012949 116.3240 243.9054 14.79954665 14969
KUIPER-00080            
1 64827U 25151M   25288.53702306  .00002032  00000+0  29561-3 0  9994
2 64827  51.8986 222.4372 0005900 131.3150 228.8321 14.79934059 13816
KUIPER-00082            
1 64828U 25151N   25288.66670139 -.00987390  00000+0 -81309-1 0  9994
2 64828  51.8915 210.4843 0005308 141.3073  71.0822 15.01404726  5821
KUIPER-00083            
1 64829U 25151P   25288.23872459  .00014401  00000+0  19069-2 0  9994
2 64829  51.8987 218.7660 0010770 121.4346 238.7671 14.80058870 15028
KUIPER-00084            
1 64830U 25151Q   25288.56533446 -.00005188  00000+0 -65060-3 0  9999
2 64830  51.8983 227.3047 0011913  97.5686 262.6630 14.79943551 13746
KUIPER-00085            
1 64831U 25151R   25288.66670139  .00044607  00000+0  34335-2 0  9999
2 64831  51.8937 210.6406 0009750 120.0098 263.2195 15.01201381  3437
KUIPER-00086            
1 64832U 25151S   25288.60733310 -.00002604  00000+0 -31185-3 0  9999
2 64832  51.9015 219.6310 0011933 119.4896 240.7259 14.79938946 13859
KUIPER-00087            
1 64833U 25151T   25288.66670139 -.01042336  00000+0 -48111-1 0  9997
2 64833  51.8804 207.2247 0006135 135.1493 225.9484 15.22640494  5845
